SL-8 R/B                
1 11574U 79089B   26088.16606743  .00000425  00000+0  13629-3 0  9992
2 11574  74.0687  54.9870 0016751 225.1631 134.8166 14.42363023438917
SL-14 R/B               
1 11672U 80005B   26088.19058425  .00000731  00000+0  71251-4 0  9998
2 11672  82.5112 288.7337 0017237  97.7593 262.5583 14.90952549479397
SL-8 R/B                
1 12139U 81003B   26087.93635644  .00025822  00000+0  64649-3 0  9991
2 12139  82.9331 272.2142 0260896 111.6861 251.2370 15.11815314317583
SL-3 R/B                
1 12465U 81046B   26088.18405786  .00015643  00000+0  35831-3 0  9991
2 12465  81.2281 266.3226 0018235 313.2555  46.7165 15.42467616441439
SL-3 R/B                
1 12904U 81103B   26088.23885599  .00007481  00000+0  32970-3 0  9995
2 12904  81.1606 190.4995 0012730 216.3131 143.7238 15.21604875976208
SL-3 R/B                
1 13068U 82013B   26088.17334700  .00004648  00000+0  19984-3 0  9996
2 13068  81.1737 137.9331 0023515 113.4644 246.9063 15.22188935407312
SL-3 R/B                
1 13154U 82039B   26088.13711244  .00003668  00000+0  22114-3 0  9998
2 13154  81.1567 193.5381 0028589 260.1229  99.6768 15.10189093384577
SL-3 R/B                
1 13403U 82079B   26088.22080671  .00007721  00000+0  30501-3 0  9995
2 13403  81.1486 170.0162 0025471 100.5874 259.8230 15.25059851380676
SL-14 R/B               
1 13553U 82092B   26088.16220756  .00000455  00000+0  48318-4 0  9992
2 13553  82.5658 123.1831 0019058 233.9484 186.9651 14.86683533331828
SL-3 R/B                
1 13819U 83010B   26088.16937620  .00020259  00000+0  39824-3 0  9998
2 13819  81.1056 338.3555 0015968 344.6221  15.4536 15.47008372360952
SL-3 R/B                
1 14208U 83075B   26088.06737390  .00012896  00000+0  33471-3 0  9993
2 14208  97.6138  93.3852 0022280 155.6415 204.5888 15.38867268333134
COSMOS 1536             
1 14699U 84013A   26088.08988610  .00007862  00000+0  32176-3 0  9993
2 14699  82.5412  88.5564 0013339 206.7011 153.3541 15.24082708275570
SL-14 R/B               
1 14820U 84027B   26088.08619522  .00000595  00000+0  65231-4 0  9992
2 14820  82.5418 226.8195 0016475 269.1858  90.7471 14.85996662250517
SL-8 R/B                
1 15483U 85006B   26088.16154852  .00000327  00000+0  11689-3 0  9995
2 15483  74.0452 225.3159 0017661 137.5023  34.3406 14.37797051156820
SL-12 R/B(2)            
1 15772U 85042D   26088.18636142  .00000057  00000+0  46785-4 0  9991
2 15772  71.1087  46.5348 0032838  95.8339 358.3060 14.21988013117167
SL-14 R/B               
1 15945U 85069B   26088.19970559  .00000616  00000+0  66745-4 0  9995
2 15945  82.5305   6.5924 0020045 124.9836 235.3266 14.86454499175733
SL-16 R/B               
1 16182U 85097B   26088.19512123 -.00000077  00000+0 -14402-4 0  9995
2 16182  71.0007  99.4876 0009446 237.0267 193.6624 14.16603638 89992
